NORAD_CAT_ID,OBJECT_NAME,OBJECT_TYPE,EPOCH,MEAN_MOTION,ECCENTRICITY,INCLINATION,RA_OF_ASC_NODE,ARG_OF_PERICENTER,MEAN_ANOMALY,BSTAR,MEAN_MOTION_DOT,MEAN_MOTION_DDOT,TLE_LINE0,TLE_LINE1,TLE_LINE2,SEMIMAJOR_AXIS,PERIOD,APOGEE,PERIGEE,DECAYED
53562.0,STARLINK-4565,PAYLOAD,2023-06-16 12:21:39,15.08849562,0.0001062,53.2148,210.7564,86.7571,273.3542,0.00012987,1.78e-05,0.0,0 STARLINK-4565,1 53562U 22101AM  23167.51503604  .00001780  00000-0  12987-3 0  9996,2 53562  53.2148 210.7564 0001062  86.7571 273.3542 15.08849562 46569,6917.851,95.437,540.451,538.981,0.0
53562.0,STARLINK-4565,PAYLOAD,2023-06-16 20:18:35,15.08842703,0.0001037,53.2148,209.2684,87.8223,272.2888,6.5509e-05,7.55e-06,0.0,0 STARLINK-4565,1 53562U 22101AM  23167.84624070  .00000755  00000-0  65509-4 0  9993,2 53562  53.2148 209.2684 0001037  87.8223 272.2888 15.08842703 46610,6917.872,95.437,540.455,539.02,0.0
53562.0,STARLINK-4565,PAYLOAD,2023-06-17 09:01:40,15.08839331,0.0001142,53.2148,206.891,89.0285,271.0838,3.4939e-05,2.68e-06,0.0,0 STARLINK-4565,1 53562U 22101AM  23168.37616393  .00000268  00000-0  34939-4 0  9993,2 53562  53.2148 206.8910 0001142  89.0285 271.0838 15.08839331 46035,6917.882,95.438,540.537,538.957,0.0
53562.0,STARLINK-4565,PAYLOAD,2023-06-17 12:12:26,15.08839051,0.0001083,53.2144,206.2946,96.5811,263.5305,2.4168e-06,-2.49e-06,0.0,0 STARLINK-4565,1 53562U 22101AM  23168.50864443 -.00000249  00000-0  24168-5 0  9993,2 53562  53.2144 206.2946 0001083  96.5811 263.5305 15.08839051 46715,6917.883,95.438,540.497,538.999,0.0
53562.0,STARLINK-4565,PAYLOAD,2023-06-17 20:09:22,15.08837957,0.0001077,53.2146,204.8079,95.8111,264.3004,-1.9368e-06,-3.19e-06,0.0,0 STARLINK-4565,1 53562U 22101AM  23168.83984512 -.00000319  00000-0 -19368-5 0  9994,2 53562  53.2146 204.8079 0001077  95.8111 264.3004 15.08837957 46769,6917.887,95.438,540.497,539.007,0.0
53562.0,STARLINK-4565,PAYLOAD,2023-06-18 12:03:13,15.08842054,0.0001069,53.2144,201.835,91.2657,268.8457,-5.3618e-05,-1.141e-05,0.0,0 STARLINK-4565,1 53562U 22101AM  23169.50224474 -.00001141  00000-0 -53618-4 0  9992,2 53562  53.2144 201.8350 0001069  91.2657 268.8457 15.08842054 46868,6917.874,95.437,540.479,539.0,0.0
53562.0,STARLINK-4565,PAYLOAD,2023-06-19 08:43:14,15.08834937,0.0001054,53.2143,197.9698,90.6259,269.4854,3.5052e-05,2.7e-06,0.0,0 STARLINK-4565,1 53562U 22101AM  23170.36336798  .00000270  00000-0  35052-4 0  9993,2 53562  53.2143 197.9698 0001054  90.6259 269.4854 15.08834937 46995,6917.896,95.438,540.49,539.032,0.0
53562.0,STARLINK-4565,PAYLOAD,2023-06-20 02:12:29,15.08835369,0.0001045,53.2148,194.6985,88.0073,272.1039,6.5152e-05,7.49e-06,0.0,0 STARLINK-4565,1 53562U 22101AM  23171.09200876  .00000749  00000-0  65152-4 0  9996,2 53562  53.2148 194.6985 0001045  88.0073 272.1039 15.08835369 46444,6917.895,95.438,540.482,539.037,0.0
53562.0,STARLINK-4565,PAYLOAD,2023-06-20 08:34:02,15.08837404,0.0001057,53.2149,193.5091,87.6595,272.4518,7.5164e-05,9.09e-06,0.0,0 STARLINK-4565,1 53562U 22101AM  23171.35696785  .00000909  00000-0  75164-4 0  9995,2 53562  53.2149 193.5091 0001057  87.6595 272.4518 15.08837404 47143,6917.888,95.438,540.485,539.022,0.0
53562.0,STARLINK-4565,PAYLOAD,2023-06-21 06:49:26,15.08835228,0.0001071,53.2149,189.3456,82.1998,277.9115,3.289e-05,2.36e-06,0.0,0 STARLINK-4565,1 53562U 22101AM  23172.28433304  .00000236  00000-0  32890-4 0  9996,2 53562  53.2149 189.3456 0001071  82.1998 277.9115 15.08835228 46621,6917.895,95.438,540.501,539.019,0.0
53562.0,STARLINK-4565,PAYLOAD,2023-06-21 17:57:08,15.08837519,0.0001078,53.2149,187.264,81.2234,278.888,4.5051e-05,4.29e-06,0.0,0 STARLINK-4565,1 53562U 22101AM  23172.74801206  .00000429  00000-0  45051-4 0  9994,2 53562  53.2149 187.2640 0001078  81.2234 278.8880 15.08837519 47358,6917.888,95.438,540.499,539.007,0.0
53562.0,STARLINK-4565,PAYLOAD,2023-06-22 09:50:59,15.0884059,0.0001153,53.2149,184.29,82.3893,277.723,2.9406e-05,1.8e-06,0.0,0 STARLINK-4565,1 53562U 22101AM  23173.41041127  .00000180  00000-0  29406-4 0  9997,2 53562  53.2149 184.2900 0001153  82.3893 277.7230 15.08840590 46798,6917.879,95.438,540.541,538.946,0.0
53562.0,STARLINK-4565,PAYLOAD,2023-06-23 17:38:42,15.08838819,0.0001139,53.2149,178.3427,87.7246,272.3877,3.8821e-05,3.3e-06,0.0,0 STARLINK-4565,1 53562U 22101AM  23174.73521304  .00000330  00000-0  38821-4 0  9991,2 53562  53.2149 178.3427 0001139  87.7246 272.3877 15.08838819 46992,6917.884,95.438,540.537,538.961,0.0
53562.0,STARLINK-4565,PAYLOAD,2023-06-25 03:01:48,15.0884095,0.0001162,53.2148,172.098,87.278,272.8346,4.1231e-05,3.68e-06,0.0,0 STARLINK-4565,1 53562U 22101AM  23176.12625207  .00000368  00000-0  41231-4 0  9993,2 53562  53.2148 172.0980 0001162  87.2780 272.8346 15.08840950 47200,6917.877,95.437,540.546,538.939,0.0
53562.0,STARLINK-4565,PAYLOAD,2023-06-26 09:14:07,15.08839347,0.000121,53.2148,166.4475,90.7245,269.3886,4.0044e-05,3.49e-06,0.0,0 STARLINK-4565,1 53562U 22101AM  23177.38481278  .00000349  00000-0  40044-4 0  9990,2 53562  53.2148 166.4475 0001210  90.7245 269.3886 15.08839347 47393,6917.882,95.438,540.584,538.91,0.0
53562.0,STARLINK-4565,PAYLOAD,2023-06-27 15:26:27,15.08837127,0.0001158,53.215,160.7977,88.806,271.3064,3.7456e-06,-2.28e-06,0.0,0 STARLINK-4565,1 53562U 22101AM  23178.64337693 -.00000228  00000-0  37456-5 0  9992,2 53562  53.2150 160.7977 0001158  88.8060 271.3064 15.08837127 47580,6917.889,95.438,540.555,538.953,0.0
53562.0,STARLINK-4565,PAYLOAD,2023-06-29 02:24:57,15.08832102,0.0001098,53.2155,154.2562,91.272,268.8398,5.2076e-06,-2.05e-06,0.0,0 STARLINK-4565,1 53562U 22101AM  23180.10066343 -.00000205  00000-0  52076-5 0  9997,2 53562  53.2155 154.2562 0001098  91.2720 268.8398 15.08832102 47801,6917.905,95.438,540.529,539.01,0.0
53562.0,STARLINK-4565,PAYLOAD,2023-06-30 14:58:49,15.08837967,0.0001135,53.2155,147.417,84.3606,275.7516,-6.8006e-07,-2.99e-06,0.0,0 STARLINK-4565,1 53562U 22101AM  23181.62418225 -.00000299  00000-0 -68006-6 0  9990,2 53562  53.2155 147.4170 0001135  84.3606 275.7516 15.08837967 48037,6917.887,95.438,540.537,538.966,0.0
53562.0,STARLINK-4565,PAYLOAD,2023-07-01 02:06:31,15.08830349,0.0001168,53.2155,145.3355,81.3176,278.7948,2.5342e-05,1.15e-06,0.0,0 STARLINK-4565,1 53562U 22101AM  23182.08786786  .00000115  00000-0  25342-4 0  9990,2 53562  53.2155 145.3355 0001168  81.3176 278.7948 15.08830349 48101,6917.91,95.438,540.583,538.967,0.0
53562.0,STARLINK-4565,PAYLOAD,2023-07-01 14:49:36,15.08837186,0.00012,53.2159,142.9565,80.1229,279.9899,3.9384e-05,3.39e-06,0.0,0 STARLINK-4565,1 53562U 22101AM  23182.61778450  .00000339  00000-0  39384-4 0  9997,2 53562  53.2159 142.9565 0001200  80.1229 279.9899 15.08837186 48186,6917.889,95.438,540.584,538.924,0.0
53562.0,STARLINK-4565,PAYLOAD,2023-07-02 03:32:41,15.08844077,0.0001158,53.216,140.5769,86.9817,273.1308,3.3968e-05,2.53e-06,0.0,0 STARLINK-4565,1 53562U 22101AM  23183.14769991  .00000253  00000-0  33968-4 0  9993,2 53562  53.2160 140.5769 0001158  86.9817 273.1308 15.08844077 48264,6917.868,95.437,540.534,538.932,0.0
53562.0,STARLINK-4565,PAYLOAD,2023-07-03 01:48:05,15.08838266,0.0001229,53.2161,136.4147,80.5957,279.5174,7.2082e-05,8.59e-06,0.0,0 STARLINK-4565,1 53562U 22101AM  23184.07506167  .00000859  00000-0  72082-4 0  9992,2 53562  53.2161 136.4147 0001229  80.5957 279.5174 15.08838266 48403,6917.886,95.438,540.601,538.9,0.0
53562.0,STARLINK-4565,PAYLOAD,2023-07-03 03:23:28,15.0884346,0.0001241,53.2166,136.1157,90.135,269.9784,7.8364e-05,9.6e-06,0.0,0 STARLINK-4565,1 53562U 22101AM  23184.14129784  .00000960  00000-0  78364-4 0  9998,2 53562  53.2166 136.1157 0001241  90.1350 269.9784 15.08843460 48417,6917.87,95.437,540.593,538.876,0.0
53562.0,STARLINK-4565,PAYLOAD,2023-07-04 03:14:15,15.08837887,0.0001312,53.2166,131.6553,94.442,265.6722,-8.7449e-06,-4.27e-06,0.0,0 STARLINK-4565,1 53562U 22101AM  23185.13490376 -.00000427  00000-0 -87449-5 0  9991,2 53562  53.2166 131.6553 0001312  94.4420 265.6722 15.08837887 48568,6917.887,95.438,540.659,538.844,0.0
53562.0,STARLINK-4565,PAYLOAD,2023-07-06 02:55:50,15.08835945,0.0001295,53.2169,122.738,101.1937,258.9201,5.6536e-05,6.12e-06,0.0,0 STARLINK-4565,1 53562U 22101AM  23187.12210754  .00000612  00000-0  56536-4 0  9998,2 53562  53.2169 122.7380 0001295 101.1937 258.9201 15.08835945 48862,6917.893,95.438,540.654,538.862,0.0
53562.0,STARLINK-4565,PAYLOAD,2023-07-07 04:22:00,15.08841298,0.0001248,53.2172,117.9797,97.3657,262.7477,9.112e-05,1.163e-05,0.0,0 STARLINK-4565,1 53562U 22101AM  23188.18194586  .00001163  00000-0  91120-4 0  9999,2 53562  53.2172 117.9797 0001248  97.3657 262.7477 15.08841298 49022,6917.876,95.437,540.605,538.878,0.0
53562.0,STARLINK-4565,PAYLOAD,2023-07-07 12:18:56,15.08835787,0.0001127,53.2165,116.4913,94.8362,265.2759,3.9331e-05,3.38e-06,0.0,0 STARLINK-4565,1 53562U 22101AM  23188.51315093  .00000338  00000-0  39331-4 0  9993,2 53562  53.2165 116.4913 0001127  94.8362 265.2759 15.08835787 49071,6917.893,95.438,540.538,538.979,0.0
53562.0,STARLINK-4565,PAYLOAD,2023-07-08 04:12:46,15.08847099,0.0001182,53.217,113.5181,97.6539,262.4588,7.3273e-05,8.79e-06,0.0,0 STARLINK-4565,1 53562U 22101AM  23189.17554327  .00000879  00000-0  73273-4 0  9994,2 53562  53.2170 113.5181 0001182  97.6539 262.4588 15.08847099 49179,6917.859,95.437,540.541,538.906,0.0
53562.0,STARLINK-4565,PAYLOAD,2023-07-08 12:09:43,15.08839353,0.000122,53.2174,112.0311,87.2127,272.9005,7.4781e-06,-1.69e-06,0.0,0 STARLINK-4565,1 53562U 22101AM  23189.50675073 -.00000169  00000-0  74781-5 0  9992,2 53562  53.2174 112.0311 0001220  87.2127 272.9005 15.08839353 49223,6917.882,95.438,540.591,538.903,0.0
53562.0,STARLINK-4565,PAYLOAD,2023-07-09 12:00:30,15.08834081,0.0001214,53.217,107.5694,93.3029,266.8102,9.5994e-06,-1.35e-06,0.0,0 STARLINK-4565,1 53562U 22101AM  23190.50035556 -.00000135  00000-0  95994-5 0  9992,2 53562  53.2170 107.5694 0001214  93.3029 266.8102 15.08834081 49373,6917.898,95.438,540.603,538.924,0.0
